{"type":"FeatureCollection","metadata":{"generated":1772987913000,"url":"https://earthquake.usgs.gov/fdsnws/event/1/query?format=geojson&starttime=2026-02-01&endtime=2026-03-01&minmagnitude=4&minlatitude=32&maxlatitude=42&minlongitude=-125&maxlongitude=-114&orderby=time-asc&limit=20000","title":"USGS Earthquakes","status":200,"api":"1.14.1","limit":20000,"offset":1,"count":3},"features":[{"type":"Feature","properties":{"mag":4.18,"place":"4 km SE of San Ramon, CA","time":1770044473640,"updated":1772553408919,"tz":null,"url":"https://earthquake.usgs.gov/earthquakes/eventpage/nc75305736","detail":"https://earthquake.usgs.gov/fdsnws/event/1/query?eventid=nc75305736&format=geojson","felt":5027,"cdi":4.6,"mmi":5.161,"alert":"green","status":"reviewed","tsunami":1,"sig":729,"net":"nc","code":"75305736","ids":",ew1770044470,nc75305736,at00t9u722,us6000s5ye,","sources":",ew,nc,at,us,","types":",dyfi,focal-mechanism,impact-link,losspager,moment-tensor,nearby-cities,oaf,origin,phase-data,scitech-link,shake-alert,shakemap,","nst":215,"dmin":0.03179,"rms":0.22,"gap":16,"magType":"mw","type":"earthquake","title":"M 4.2 - 4 km SE of San Ramon, CA"},"geometry":{"type":"Point","coordinates":[-121.943666666667,37.7563333333333,9.56]},"id":"nc75305736"},
{"type":"Feature","properties":{"mag":4.18,"place":"6 km NW of Delta, B.C., MX","time":1770799113450,"updated":1772959721551,"tz":null,"url":"https://earthquake.usgs.gov/earthquakes/eventpage/ci41395584","detail":"https://earthquake.usgs.gov/fdsnws/event/1/query?eventid=ci41395584&format=geojson","felt":15,"cdi":3.6,"mmi":4.444,"alert":"green","status":"reviewed","tsunami":1,"sig":274,"net":"ci","code":"41395584","ids":",ew1770799120,us6000s7sh,ci41395584,at00taadc8,","sources":",ew,us,ci,at,","types":",dyfi,event-sequence,focal-mechanism,impact-link,losspager,nearby-cities,oaf,origin,phase-data,scitech-link,shake-alert,shakemap,","nst":38,"dmin":0.05766,"rms":0.41,"gap":50,"magType":"ml","type":"earthquake","title":"M 4.2 - 6 km NW of Delta, B.C., MX"},"geometry":{"type":"Point","coordinates":[-115.247833333333,32.388,8.1]},"id":"ci41395584"},
{"type":"Feature","properties":{"mag":4.15,"place":"5 km W of Cobb, CA","time":1771694576030,"updated":1772170338563,"tz":null,"url":"https://earthquake.usgs.gov/earthquakes/eventpage/nc75316827","detail":"https://earthquake.usgs.gov/fdsnws/event/1/query?eventid=nc75316827&format=geojson","felt":143,"cdi":5.5,"mmi":4.43,"alert":"green","status":"reviewed","tsunami":0,"sig":344,"net":"nc","code":"75316827","ids":",ew1771694580,nc75316827,us6000samw,","sources":",ew,nc,us,","types":",dyfi,focal-mechanism,losspager,moment-tensor,nearby-cities,origin,phase-data,scitech-link,shake-alert,shakemap,","nst":106,"dmin":0.00984,"rms":0.08,"gap":24,"magType":"mw","type":"earthquake","title":"M 4.2 - 5 km W of Cobb, CA"},"geometry":{"type":"Point","coordinates":[-122.783666666667,38.8228333333333,1.96]},"id":"nc75316827"}],"bbox":[-122.78366666667,32.388,1.96,-115.24783333333,38.822833333333,9.56]}